[{"OBJECT_NAME":"JILIN-1 08","OBJECT_ID":"2018-008F","EPOCH":"2026-03-09T22:37:53.184288","MEAN_MOTION":15.32205976,"ECCENTRICITY":0.00081321,"INCLINATION":97.1902,"RA_OF_ASC_NODE":90.9961,"ARG_OF_PERICENTER":76.0646,"MEAN_ANOMALY":284.15,"EPHEMERIS_TYPE":0,"CLASSIFICATION_TYPE":"U","NORAD_CAT_ID":43160,"ELEMENT_SET_NO":999,"REV_AT_EPOCH":44974,"BSTAR":0.00036689195,"MEAN_MOTION_DOT":0.00011349,"MEAN_MOTION_DDOT":0},{"OBJECT_NAME":"STARLINK-2371","OBJECT_ID":"2021-021BD","EPOCH":"2026-03-09T21:41:50.826336","MEAN_MOTION":15.30182203,"ECCENTRICITY":0.00011884,"INCLINATION":53.16,"RA_OF_ASC_NODE":279.9967,"ARG_OF_PERICENTER":91.3442,"MEAN_ANOMALY":268.7695,"EPHEMERIS_TYPE":0,"CLASSIFICATION_TYPE":"U","NORAD_CAT_ID":47911,"ELEMENT_SET_NO":999,"REV_AT_EPOCH":27594,"BSTAR":3.4458377e-5,"MEAN_MOTION_DOT":6.61e-6,"MEAN_MOTION_DDOT":0}]
